SENTINEL-6              
1 46984U 20086A   24276.58605634 -.00000037  00000+0  10215-3 0  9997
2 46984  66.0447 348.2041 0007846 269.2422  90.7694 12.80928493180587
